OBJECT_NAME,OBJECT_ID,EPOCH,MEAN_MOTION,ECCENTRICITY,INCLINATION,RA_OF_ASC_NODE,ARG_OF_PERICENTER,MEAN_ANOMALY,EPHEMERIS_TYPE,CLASSIFICATION_TYPE,NORAD_CAT_ID,ELEMENT_SET_NO,REV_AT_EPOCH,BSTAR,MEAN_MOTION_DOT,MEAN_MOTION_DDOT
SAR-LUPE 2,2007-030A,2026-06-19T06:47:40.590816,15.50487993,.0004109,98.1043,274.9751,152.6186,207.5281,0,U,31797,999,5726,.52866067E-3,.30116E-3,0
SAPPHIRE,2013-009C,2026-06-19T06:04:45.755904,14.35241033,.00101369,98.4262,349.6600,239.7942,120.2240,0,U,39088,999,69687,.39222587E-4,.69E-6,0
PRAETORIAN SDA_602,2025-203A,2026-06-18T19:56:32.207712,13.84342963,.00058668,81.3030,9.2458,179.4644,180.6520,0,U,65565,999,3892,.33229136E-4,.49E-6,0
PRAETORIAN SDA_603,2025-203B,2026-06-19T01:48:02.819232,13.83904834,.00094929,81.3032,8.9375,181.9778,178.1343,0,U,65566,999,3896,.11530706E-3,.14E-5,0
PRAETORIAN SDA_604,2025-203C,2026-06-19T00:33:56.815200,13.83047656,.0005367,81.3052,9.4004,186.2006,173.9085,0,U,65567,999,3893,.32473584E-4,.47E-6,0
PRAETORIAN SDA_605,2025-203D,2026-06-19T06:39:52.265664,13.83434339,.00081926,81.3018,8.8265,177.2703,182.8499,0,U,65568,999,3898,.23669371E-4,.38E-6,0
PRAETORIAN SDA_606,2025-203E,2026-06-17T07:22:48.694656,13.83407378,.00057443,81.3055,10.8712,180.4388,179.6764,0,U,65569,999,3870,.3743896E-4,.53E-6,0
PRAETORIAN SDA_607,2025-203F,2026-06-19T06:24:28.546848,13.84284741,.00087312,81.3037,8.7185,181.6550,178.4579,0,U,65570,999,3899,.16075823E-3,.191E-5,0
PRAETORIAN SDA_608,2025-203G,2026-06-19T05:52:56.341920,13.83817092,.00058681,81.3006,8.9020,185.0246,175.0852,0,U,65571,999,3897,.37187642E-4,.53E-6,0
PRAETORIAN SDA_609,2025-203H,2026-06-19T00:46:54.170688,13.84210663,.00067989,81.3047,9.0814,180.1964,179.9191,0,U,65572,999,3895,-.66999214E-4,-.63E-6,0
PRAETORIAN SDA_610,2025-203J,2026-06-18T01:37:53.160096,13.83851939,.0006474,81.3007,9.9498,186.0221,174.0859,0,U,65573,999,3881,.23778E-4,.38E-6,0
PRAETORIAN SDA_611,2025-203K,2026-06-19T01:57:40.624416,13.83309409,.00054852,81.3008,9.1777,188.6376,171.4687,0,U,65574,999,3894,.61088678E-4,.79E-6,0
PRAETORIAN SDA_612,2025-203L,2026-06-19T06:51:23.520096,13.85039797,.00092538,81.3024,8.5711,181.4079,178.7053,0,U,65575,999,3900,.17101417E-3,.205E-5,0
PRAETORIAN SDA_613,2025-203M,2026-06-19T00:24:16.088832,13.82765197,.00056693,81.2998,9.2368,178.6893,181.4279,0,U,65576,999,3893,.27534073E-4,.42E-6,0
PRAETORIAN SDA_614,2025-203N,2026-06-19T01:24:14.533056,13.84777239,.00071163,81.3014,8.8598,178.3521,181.7661,0,U,65577,999,3897,-.1431964E-5,.1E-6,0
PRAETORIAN SDA_615,2025-203P,2026-06-19T06:03:50.075424,13.84436513,.00090073,81.3022,8.6451,179.8196,180.2966,0,U,65578,999,3899,.12529566E-3,.152E-5,0
PRAETORIAN SDA_616,2025-203Q,2026-06-19T01:56:37.585248,13.83268034,.0005599,81.3064,9.3242,186.0252,174.0838,0,U,65579,999,3894,.13983163E-3,.165E-5,0
PRAETORIAN SDA_617,2025-203R,2026-06-19T05:56:18.160224,13.83150142,.00073718,81.3036,9.0027,178.4455,181.6725,0,U,65580,999,3897,.12415293E-4,.25E-6,0
PRAETORIAN SDA_618,2025-203S,2026-06-19T01:46:20.487072,13.84670088,.00096866,81.3017,8.7397,182.7320,177.3786,0,U,65581,999,3897,.15653402E-3,.188E-5,0
PRAETORIAN SDA_619,2025-203T,2026-06-19T06:08:02.092992,13.83806538,.00081782,81.3043,8.8715,180.1051,180.0105,0,U,65582,999,3961,.16189322E-3,.191E-5,0
PRAETORIAN SDA_620,2025-203U,2026-06-19T01:36:20.906496,13.83618882,.00075875,81.3031,9.0671,176.1633,183.9583,0,U,65583,999,3895,.91493691E-4,.113E-5,0
PRAETORIAN SDA_621,2025-203V,2026-06-19T06:10:35.842656,13.83801447,.00074575,81.3020,8.8082,173.0541,187.0721,0,U,65584,999,3898,.31064963E-4,.46E-6,0
PRAETORIAN SDA_601,2025-203W,2026-06-19T02:01:20.345664,13.83167862,.00053576,81.3037,9.2664,190.1433,169.9616,0,U,65585,999,3894,.9815661E-4,.119E-5,0
