
PRAETORIAN SDA_601
1 65585U 25203W   26170.08426326  .00000119  00000+0  98157-4 0  9992
2 65585  81.3037   9.2664 0005357 190.1433 169.9616 13.83167862 38948

PRAETORIAN SDA_602
1 65565U 25203A   26169.83092833  .00000049  00000+0  33229-4 0  9994
2 65565  81.3030   9.2458 0005866 179.4644 180.6520 13.84342963 38929

PRAETORIAN SDA_603
1 65566U 25203B   26170.07503263  .00000140  00000+0  11531-3 0  9990
2 65566  81.3032   8.9375 0009492 181.9778 178.1343 13.83904834 38960

PRAETORIAN SDA_604
1 65567U 25203C   26170.02357425  .00000047  00000+0  32474-4 0  9999
2 65567  81.3052   9.4004 0005367 186.2006 173.9085 13.83047656 38930

PRAETORIAN SDA_605
1 65568U 25203D   26170.27768826  .00000038  00000+0  23669-4 0  9994
2 65568  81.3018   8.8265 0008192 177.2703 182.8499 13.83434339 38989

PRAETORIAN SDA_606
1 65569U 25203E   26168.30750804  .00000053  00000+0  37439-4 0  9990
2 65569  81.3055  10.8712 0005744 180.4388 179.6764 13.83407378 38708

PRAETORIAN SDA_607
1 65570U 25203F   26170.26699707  .00000191  00000+0  16076-3 0  9990
2 65570  81.3037   8.7185 0008731 181.6550 178.4579 13.84284741 38993

PRAETORIAN SDA_608
1 65571U 25203G   26170.24509655  .00000053  00000+0  37188-4 0  9996
2 65571  81.3006   8.9020 0005868 185.0246 175.0852 13.83817092 38973

PRAETORIAN SDA_609
1 65572U 25203H   26170.03257142 -.00000063  00000+0 -66999-4 0  9990
2 65572  81.3047   9.0814 0006798 180.1964 179.9191 13.84210663 38957

PRAETORIAN SDA_610
1 65573U 25203J   26169.06797639  .00000038  00000+0  23778-4 0  9990
2 65573  81.3007   9.9498 0006474 186.0221 174.0859 13.83851939 38811

PRAETORIAN SDA_611
1 65574U 25203K   26170.08172019  .00000079  00000+0  61089-4 0  9996
2 65574  81.3008   9.1777 0005485 188.6376 171.4687 13.83309409 38949

PRAETORIAN SDA_612
1 65575U 25203L   26170.28568889  .00000205  00000+0  17101-3 0  9999
2 65575  81.3024   8.5711 0009253 181.4079 178.7053 13.85039797 39004

PRAETORIAN SDA_613
1 65576U 25203M   26170.01685288  .00000042  00000+0  27534-4 0  9995
2 65576  81.2998   9.2368 0005669 178.6893 181.4279 13.82765197 38938

PRAETORIAN SDA_614
1 65577U 25203N   26170.05850154  .00000010  00000+0 -14320-5 0  9992
2 65577  81.3014   8.8598 0007116 178.3521 181.7661 13.84777239 38977

PRAETORIAN SDA_615
1 65578U 25203P   26170.25266291  .00000152  00000+0  12530-3 0  9993
2 65578  81.3022   8.6451 0009007 179.8196 180.2966 13.84436513 38999

PRAETORIAN SDA_616
1 65579U 25203Q   26170.08099057  .00000165  00000+0  13983-3 0  9996
2 65579  81.3064   9.3242 0005599 186.0252 174.0838 13.83268034 38941

PRAETORIAN SDA_617
1 65580U 25203R   26170.24743241  .00000025  00000+0  12415-4 0  9992
2 65580  81.3036   9.0027 0007371 178.4455 181.6725 13.83150142 38972

PRAETORIAN SDA_618
1 65581U 25203S   26170.07384823  .00000188  00000+0  15653-3 0  9997
2 65581  81.3017   8.7397 0009686 182.7320 177.3786 13.84670088 38974

PRAETORIAN SDA_619
1 65582U 25203T   26170.25557978  .00000191  00000+0  16189-3 0  9990
2 65582  81.3043   8.8715 0008178 180.1051 180.0105 13.83806538 39615

PRAETORIAN SDA_620
1 65583U 25203U   26170.06690864  .00000113  00000+0  91494-4 0  9999
2 65583  81.3031   9.0671 0007587 176.1633 183.9583 13.83618882 38952

PRAETORIAN SDA_621
1 65584U 25203V   26170.25735929  .00000046  00000+0  31065-4 0  9996
2 65584  81.3020   8.8082 0007457 173.0541 187.0721 13.83801447 38987

SAPPHIRE
1 39088U 13009C   26170.25330736  .00000069  00000+0  39223-4 0  9993
2 39088  98.4262 349.6600 0010136 239.7942 120.2240 14.35241033696879

SAR-LUPE 2
1 31797U 07030A   26170.28310869  .00030116  00000+0  52866-3 0  9990
2 31797  98.1043 274.9751 0004109 152.6186 207.5281 15.50487993 57268
